{
  "type": "FeatureCollection",
  "features": [
    {
      "type": "Feature",
      "properties": {
        "norad_id": 54741,
        "name": "GALAXY 35 (G-35)",
        "group": "intelsat",
        "lat": 0.03385931234602215,
        "lon": 95.16279856567584,
        "alt_km": 35797.40140343152,
        "timestamp": "2025-12-04T07:39:35.838387+00:00",
        "meta_object_name": "GALAXY 35 (G-35)",
        "meta_object_id": "2022-170A",
        "meta_epoch": "2025-12-03T13:18:45.764640",
        "meta_mean_motion": 1.00275104,
        "meta_eccentricity": 0.00029467,
        "meta_inclination": 0.0153,
        "meta_ra_of_asc_node": 341.0255,
        "meta_arg_of_pericenter": 282.5297,
        "meta_mean_anomaly": 275.6654,
        "meta_ephemeris_type": 0,
        "meta_classification_type": "U",
        "meta_norad_cat_id": 54741,
        "meta_element_set_no": 999,
        "meta_rev_at_epoch": 1093,
        "meta_bstar": 0,
        "meta_mean_motion_dot": 0,
        "meta_mean_motion_ddot": 0,
        "tle_line1": "1 54741U 22170A   25337.55469635  .00000000  00000+0  00000+0 0  9994",
        "tle_line2": "2 54741   0.0153 341.0255 0002946 282.5297 275.6654  1.00275104 10936"
      },
      "geometry": {
        "type": "Point",
        "coordinates": [
          95.16279856567584,
          0.03385931234602215
        ]
      }
    },
    {
      "type": "Feature",
      "properties": {
        "norad_id": 54742,
        "name": "GALAXY 36 (G-36)",
        "group": "intelsat",
        "lat": 0.006244607925486108,
        "lon": 99.26907785105954,
        "alt_km": 35788.75723108307,
        "timestamp": "2025-12-04T07:39:35.838397+00:00",
        "meta_object_name": "GALAXY 36 (G-36)",
        "meta_object_id": "2022-170B",
        "meta_epoch": "2025-12-03T13:20:00.645792",
        "meta_mean_motion": 1.00270357,
        "meta_eccentricity": 6.037e-05,
        "meta_inclination": 0.0156,
        "meta_ra_of_asc_node": 264.3766,
        "meta_arg_of_pericenter": 345.6709,
        "meta_mean_anomaly": 293.6018,
        "meta_ephemeris_type": 0,
        "meta_classification_type": "U",
        "meta_norad_cat_id": 54742,
        "meta_element_set_no": 999,
        "meta_rev_at_epoch": 1081,
        "meta_bstar": 0,
        "meta_mean_motion_dot": -1.67e-06,
        "meta_mean_motion_ddot": 0,
        "tle_line1": "1 54742U 22170B   25337.55556303 -.00000167  00000+0  00000+0 0  9999",
        "tle_line2": "2 54742   0.0156 264.3766 0000603 345.6709 293.6018  1.00270357 10817"
      },
      "geometry": {
        "type": "Point",
        "coordinates": [
          99.26907785105954,
          0.006244607925486108
        ]
      }
    },
    {
      "type": "Feature",
      "properties": {
        "norad_id": 57493,
        "name": "GALAXY 37 (G-37)",
        "group": "intelsat",
        "lat": 0.035817596761675605,
        "lon": 61.30210905305043,
        "alt_km": 35795.68251334659,
        "timestamp": "2025-12-04T07:39:35.838407+00:00",
        "meta_object_name": "GALAXY 37 (G-37)",
        "meta_object_id": "2023-112A",
        "meta_epoch": "2025-12-03T16:22:38.540064",
        "meta_mean_motion": 1.00273078,
        "meta_eccentricity": 0.00024793,
        "meta_inclination": 0.0143,
        "meta_ra_of_asc_node": 302.8949,
        "meta_arg_of_pericenter": 316.0904,
        "meta_mean_anomaly": 292.4607,
        "meta_ephemeris_type": 0,
        "meta_classification_type": "U",
        "meta_norad_cat_id": 57493,
        "meta_element_set_no": 999,
        "meta_rev_at_epoch": 858,
        "meta_bstar": 0,
        "meta_mean_motion_dot": 6.5e-07,
        "meta_mean_motion_ddot": 0,
        "tle_line1": "1 57493U 23112A   25337.68239051  .00000065  00000+0  00000+0 0  9990",
        "tle_line2": "2 57493   0.0143 302.8949 0002479 316.0904 292.4607  1.00273078  8587"
      },
      "geometry": {
        "type": "Point",
        "coordinates": [
          61.30210905305043,
          0.035817596761675605
        ]
      }
    }
  ]
}